[{"OBJECT_NAME":"STARLINK-6208","OBJECT_ID":"2023-083V","EPOCH":"2026-03-09T02:14:37.110048","MEAN_MOTION":15.0253335,"ECCENTRICITY":0.00012824,"INCLINATION":43.0025,"RA_OF_ASC_NODE":84.7624,"ARG_OF_PERICENTER":264.9352,"MEAN_ANOMALY":95.1344,"EPHEMERIS_TYPE":0,"CLASSIFICATION_TYPE":"U","NORAD_CAT_ID":56895,"ELEMENT_SET_NO":999,"REV_AT_EPOCH":15158,"BSTAR":-6.6291507e-5,"MEAN_MOTION_DOT":-1.099e-5,"MEAN_MOTION_DDOT":0},{"OBJECT_NAME":"KUIPER-00163","OBJECT_ID":"2025-217R","EPOCH":"2026-03-09T22:00:01.999584","MEAN_MOTION":15.04465035,"ECCENTRICITY":0.00014571,"INCLINATION":51.8986,"RA_OF_ASC_NODE":45.7407,"ARG_OF_PERICENTER":44.6622,"MEAN_ANOMALY":115.8121,"EPHEMERIS_TYPE":0,"CLASSIFICATION_TYPE":"U","NORAD_CAT_ID":65777,"ELEMENT_SET_NO":999,"REV_AT_EPOCH":421,"BSTAR":0.0036879853,"MEAN_MOTION_DOT":0.00052296,"MEAN_MOTION_DDOT":0}]
